COMMENT,ORIGINATOR,NORAD_CAT_ID,OBJECT_NAME,OBJECT_TYPE,CLASSIFICATION_TYPE,INTLDES,EPOCH,EPOCH_MICROSECONDS,MEAN_MOTION,ECCENTRICITY,INCLINATION,RA_OF_ASC_NODE,ARG_OF_PERICENTER,MEAN_ANOMALY,EPHEMERIS_TYPE,ELEMENT_SET_NO,REV_AT_EPOCH,BSTAR,MEAN_MOTION_DOT,MEAN_MOTION_DDOT,FILE,TLE_LINE0,TLE_LINE1,TLE_LINE2,OBJECT_ID,OBJECT_NUMBER,SEMIMAJOR_AXIS,PERIOD,APOGEE,PERIGEE,DECAYED,date
GENERATED VIA SPACETRACK.ORG API,18 SPCS,52182,SPACEBEE-128,PAYLOAD,U,22033AB,2023/3/3 5:20,394144,15.34632078,0.0008173,97.359,145.463,183.176,176.9432,0,999,5116,0.0021174,0.00071631,0,3850163,0 SPACEBEE-128,1 52182U 22033AB  23062.22252771  .00071631  00000-0  21174-2 0  9994,2 52182  97.3590 145.4630 0008173 183.1760 176.9432 15.34632078 51165,2022-033AB,52182,6840.151,93.834,467.606,456.425,1,
GENERATED VIA SPACETRACK.ORG API,18 SPCS,52182,SPACEBEE-128,PAYLOAD,U,22033AB,2023/3/3 16:17,399232,15.34691245,0.0007918,97.3589,145.9184,182.783,177.3371,0,999,5123,0.0020107,0.0006811,0,3850400,0 SPACEBEE-128,1 52182U 22033AB  23062.67895138  .00068110  00000-0  20107-2 0  9996,2 52182  97.3589 145.9184 0007918 182.7830 177.3371 15.34691245 51237,2022-033AB,52182,6839.975,93.83,467.256,456.424,1,
GENERATED VIA SPACETRACK.ORG API,18 SPCS,52182,SPACEBEE-128,PAYLOAD,U,22033AB,2023/3/4 11:04,173440,15.34808824,0.0007932,97.3589,146.6991,181.2033,178.9192,0,999,5133,0.0024062,0.00081975,0,3851059,0 SPACEBEE-128,1 52182U 22033AB  23063.46134460  .00081975  00000-0  24062-2 0  9996,2 52182  97.3589 146.6991 0007932 181.2033 178.9192 15.34808824 51338,2022-033AB,52182,6839.625,93.823,466.916,456.065,1,
GENERATED VIA SPACETRACK.ORG API,18 SPCS,52182,SPACEBEE-128,PAYLOAD,U,22033AB,2023/3/4 11:04,173440,15.34808824,0.0007932,97.3589,146.6991,181.2033,178.9192,0,999,5135,0.0024062,0.00081975,0,3851072,0 SPACEBEE-128,1 52182U 22033AB  23063.46134460  .00081975  00000-0  24062-2 0  9996,2 52182  97.3589 146.6991 0007932 181.2033 178.9192 15.34808824 51350,2022-033AB,52182,6839.625,93.823,466.916,456.065,1,
GENERATED VIA SPACETRACK.ORG API,18 SPCS,52182,SPACEBEE-128,PAYLOAD,U,22033AB,2023/3/4 17:19,986208,15.34844721,0.0007925,97.3593,146.9598,180.6126,179.5109,0,999,5139,0.0019697,0.00067035,0,3851350,0 SPACEBEE-128,1 52182U 22033AB  23063.72212947  .00067035  00000-0  19697-2 0  9991,2 52182  97.3593 146.9598 0007925 180.6126 179.5109 15.34844721 51394,2022-033AB,52182,6839.519,93.821,466.804,455.963,1,
GENERATED VIA SPACETRACK.ORG API,18 SPCS,52182,SPACEBEE-128,PAYLOAD,U,22033AB,2023/3/5 7:24,511424,15.34934604,0.0007994,97.3594,147.5453,178.6696,181.457,0,999,5148,0.0022227,0.00075962,0,3851939,0 SPACEBEE-128,1 52182U 22033AB  23064.30887166  .00075962  00000-0  22227-2 0  9998,2 52182  97.3594 147.5453 0007994 178.6696 181.4570 15.34934604 51481,2022-033AB,52182,6839.252,93.815,466.584,455.649,1,
GENERATED VIA SPACETRACK.ORG API,18 SPCS,52182,SPACEBEE-128,PAYLOAD,U,22033AB,2023/3/5 13:40,531392,15.34968808,0.0007932,97.3596,147.8058,177.7823,182.3457,0,999,5150,0.0022433,0.00076757,0,3851910,0 SPACEBEE-128,1 52182U 22033AB  23064.56963578  .00076757  00000-0  22433-2 0  9990,2 52182  97.3596 147.8058 0007932 177.7823 182.3457 15.34968808 51501,2022-033AB,52182,6839.15,93.813,466.44,455.59,1,
GENERATED VIA SPACETRACK.ORG API,18 SPCS,52182,SPACEBEE-128,PAYLOAD,U,22033AB,2023/3/5 21:29,52384,15.35028152,0.0007978,97.3592,148.1307,176.8955,183.234,0,999,5157,0.0023192,0.00079536,0,3852256,0 SPACEBEE-128,1 52182U 22033AB  23064.89557931  .00079536  00000-0  23192-2 0  9999,2 52182  97.3592 148.1307 0007978 176.8955 183.2340 15.35028152 51572,2022-033AB,52182,6838.974,93.809,466.295,455.383,1,
GENERATED VIA SPACETRACK.ORG API,18 SPCS,52182,SPACEBEE-128,PAYLOAD,U,22033AB,2023/3/6 5:18,607424,15.35086995,0.0008032,97.3592,148.4559,175.5551,184.5765,0,999,5160,0.002372,0.00081522,0,3852525,0 SPACEBEE-128,1 52182U 22033AB  23065.22151166  .00081522  00000-0  23720-2 0  9992,2 52182  97.3592 148.4559 0008032 175.5551 184.5765 15.35086995 51602,2022-033AB,52182,6838.799,93.806,466.157,455.171,1,
GENERATED VIA SPACETRACK.ORG API,18 SPCS,52182,SPACEBEE-128,PAYLOAD,U,22033AB,2023/3/6 16:16,854336,15.35147833,0.0007946,97.3589,148.9118,174.0121,186.1219,0,999,5167,0.0019727,0.00067794,0,3853107,0 SPACEBEE-128,1 52182U 22033AB  23065.67779924  .00067794  00000-0  19727-2 0  9996,2 52182  97.3589 148.9118 0007946 174.0121 186.1219 15.35147833 51672,2022-033AB,52182,6838.618,93.802,465.917,455.049,1,
GENERATED VIA SPACETRACK.ORG API,18 SPCS,52182,SPACEBEE-128,PAYLOAD,U,22033AB,2023/3/6 16:16,854336,15.35147833,0.0007946,97.3589,148.9118,174.0121,186.1219,0,999,5169,0.0019727,0.00067794,0,3853141,0 SPACEBEE-128,1 52182U 22033AB  23065.67779924  .00067794  00000-0  19727-2 0  9996,2 52182  97.3589 148.9118 0007946 174.0121 186.1219 15.35147833 51694,2022-033AB,52182,6838.618,93.802,465.917,455.049,1,
GENERATED VIA SPACETRACK.ORG API,18 SPCS,52182,SPACEBEE-128,PAYLOAD,U,22033AB,2023/3/7 6:20,58208,15.35251694,0.0008009,97.3587,149.4973,172.4669,187.6696,0,999,5176,0.0023723,0.00081965,0,3853517,0 SPACEBEE-128,1 52182U 22033AB  23066.26442197  .00081965  00000-0  23723-2 0  9998,2 52182  97.3587 149.4973 0008009 172.4669 187.6696 15.35251694 51761,2022-033AB,52182,6838.31,93.796,465.652,454.698,1,
GENERATED VIA SPACETRACK.ORG API,18 SPCS,52182,SPACEBEE-128,PAYLOAD,U,22033AB,2023/3/7 21:59,199104,15.35351266,0.0007835,97.3585,150.1482,170.9137,189.2249,0,999,5188,0.0021328,0.00073834,0,3854072,0 SPACEBEE-128,1 52182U 22033AB  23066.91618286  .00073834  00000-0  21328-2 0  9999,2 52182  97.3585 150.1482 0007835 170.9137 189.2249 15.35351266 51883,2022-033AB,52182,6838.014,93.79,465.237,454.522,1,
GENERATED VIA SPACETRACK.ORG API,18 SPCS,52182,SPACEBEE-128,PAYLOAD,U,22033AB,2023/3/8 15:11,380192,15.35466792,0.0007757,97.3584,150.8643,167.9496,192.1934,0,999,5197,0.0030773,0.00107427,0,3854704,0 SPACEBEE-128,1 52182U 22033AB  23067.63307153  .00107427  00000-0  30773-2 0  9997,2 52182  97.3584 150.8643 0007757 167.9496 192.1934 15.35466792 51970,2022-033AB,52182,6837.671,93.783,464.84,454.232,1,
GENERATED VIA SPACETRACK.ORG API,18 SPCS,52182,SPACEBEE-128,PAYLOAD,U,22033AB,2023/3/8 21:26,620704,15.35507868,0.0007822,97.3582,151.1242,167.3667,192.7774,0,999,5203,0.0033597,0.00117604,0,3855077,0 SPACEBEE-128,1 52182U 22033AB  23067.89374561  .00117604  00000-0  33597-2 0  9997,2 52182  97.3582 151.1242 0007822 167.3667 192.7774 15.35507868 52030,2022-033AB,52182,6837.549,93.78,464.763,454.066,1,
GENERATED VIA SPACETRACK.ORG API,18 SPCS,52182,SPACEBEE-128,PAYLOAD,U,22033AB,2023/3/9 6:50,594752,15.35571985,0.0007854,97.358,151.5146,166.0249,194.1213,0,999,5207,0.0022828,0.00079651,0,3855390,0 SPACEBEE-128,1 52182U 22033AB  23068.28474068  .00079651  00000-0  22828-2 0  9998,2 52182  97.3580 151.5146 0007854 166.0249 194.1213 15.35571985 52071,2022-033AB,52182,6837.359,93.776,464.594,453.854,1,
GENERATED VIA SPACETRACK.ORG API,18 SPCS,52182,SPACEBEE-128,PAYLOAD,U,22033AB,2023/3/9 20:54,853664,15.35678098,0.0007772,97.3576,152.1003,164.6329,195.5152,0,999,5218,0.0025694,0.00090085,0,3855951,0 SPACEBEE-128,1 52182U 22033AB  23068.87120201  .00090085  00000-0  25694-2 0  9998,2 52182  97.3576 152.1003 0007772 164.6329 195.5152 15.35678098 52189,2022-033AB,52182,6837.044,93.77,464.223,453.595,1,
GENERATED VIA SPACETRACK.ORG API,18 SPCS,52182,SPACEBEE-128,PAYLOAD,U,22033AB,2023/3/10 18:48,408352,15.35831554,0.0007644,97.3573,153.0121,161.8783,198.2734,0,999,5230,0.0021083,0.00074111,0,3856934,0 SPACEBEE-128,1 52182U 22033AB  23069.78339593  .00074111  00000-0  21083-2 0  9995,2 52182  97.3573 153.0121 0007644 161.8783 198.2734 15.35831554 52306,2022-033AB,52182,6836.589,93.76,463.68,453.228,1,
GENERATED VIA SPACETRACK.ORG API,18 SPCS,52182,SPACEBEE-128,PAYLOAD,U,22033AB,2023/3/10 21:55,836384,15.35854641,0.0007655,97.3572,153.1421,161.5319,198.6204,0,999,5234,0.0022621,0.00079639,0,3856975,0 SPACEBEE-128,1 52182U 22033AB  23069.91370181  .00079639  00000-0  22621-2 0  9997,2 52182  97.3572 153.1421 0007655 161.5319 198.6204 15.35854641 52345,2022-033AB,52182,6836.52,93.759,463.619,453.152,1,
GENERATED VIA SPACETRACK.ORG API,18 SPCS,52182,SPACEBEE-128,PAYLOAD,U,22033AB,2023/3/11 8:52,184512,15.35930333,0.0007645,97.3572,153.5981,159.6004,200.5547,0,999,5239,0.0023666,0.00083566,0,3857562,0 SPACEBEE-128,1 52182U 22033AB  23070.36975908  .00083566  00000-0  23666-2 0  9990,2 52182  97.3572 153.5981 0007645 159.6004 200.5547 15.35930333 52399,2022-033AB,52182,6836.296,93.754,463.387,452.934,1,
GENERATED VIA SPACETRACK.ORG API,18 SPCS,52182,SPACEBEE-128,PAYLOAD,U,22033AB,2023/3/11 13:33,749152,15.3595711,0.0007596,97.357,153.7936,158.9819,201.1738,0,999,5244,0.0021297,0.00075174,0,3857581,0 SPACEBEE-128,1 52182U 22033AB  23070.56520543  .00075174  00000-0  21297-2 0  9997,2 52182  97.3570 153.7936 0007596 158.9819 201.1738 15.35957110 52447,2022-033AB,52182,6836.216,93.753,463.274,452.888,1,
GENERATED VIA SPACETRACK.ORG API,18 SPCS,52182,SPACEBEE-128,PAYLOAD,U,22033AB,2023/3/11 21:22,359424,15.36004425,0.0007639,97.3569,154.1187,158.2169,201.9401,0,999,5249,0.0019618,0.00069294,0,3857847,0 SPACEBEE-128,1 52182U 22033AB  23070.89094166  .00069294  00000-0  19618-2 0  9990,2 52182  97.3569 154.1187 0007639 158.2169 201.9401 15.36004425 52490,2022-033AB,52182,6836.076,93.75,463.163,452.719,1,
GENERATED VIA SPACETRACK.ORG API,18 SPCS,52182,SPACEBEE-128,PAYLOAD,U,22033AB,2023/3/12 8:19,918048,15.36076381,0.0007615,97.3568,154.5747,156.6546,203.5045,0,999,5254,0.0021479,0.00076116,0,3858212,0 SPACEBEE-128,1 52182U 22033AB  23071.34695507  .00076116  00000-0  21479-2 0  9996,2 52182  97.3568 154.5747 0007615 156.6546 203.5045 15.36076381 52548,2022-033AB,52182,6835.862,93.745,462.933,452.522,1,
